start=new Date('2023-04-08T00:00:00.000Z').valueOf();
sats=[{"TIME_SYSTEM":"UTC","OBJECT_TYPE":"PAYLOAD","PERIOD":"95.589","REF_FRAME":"TEME","MEAN_MOTION":"15.06447477","REV_AT_EPOCH":"10528","ELEMENT_SET_NO":"999","TLE_LINE1":"1 48582U 21041AF  23097.50115567  .00035102  00000-0  23607-2 0  9997","EPHEMERIS_TYPE":"0","TLE_LINE2":"2 48582  53.0532 207.5774 0000765  73.7934 286.3139 15.06447477105283","ARG_OF_PERICENTER":"73.7934","BSTAR":"0.00236070000000","SITE":"AFETR","DECAY_DATE":null,"ECCENTRICITY":"0.00007650","RCS_SIZE":"LARGE","COUNTRY_CODE":"US","LAUNCH_DATE":"2021-05-15","SEMIMAJOR_AXIS":"6925.203","OBJECT_ID":"2021-041AF","CLASSIFICATION_TYPE":"U","RA_OF_ASC_NODE":"207.5774","OBJECT_NAME":"STARLINK-2236","MEAN_ELEMENT_THEORY":"SGP4","FILE":"3882756","MEAN_MOTION_DOT":"0.00035102","MEAN_MOTION_DDOT":"0.0000000000000","APOAPSIS":"547.598","NORAD_CAT_ID":"48582","EPOCH":"2023-04-07T12:01:39.849888","INCLINATION":"53.0532","PERIAPSIS":"546.538","MEAN_ANOMALY":"286.3139","GP_ID":"229690620","CENTER_NAME":"EARTH"},{"INCLINATION":"53.0541","PERIAPSIS":"546.321","MEAN_ANOMALY":"309.8079","GP_ID":"229688261","CENTER_NAME":"EARTH","FILE":"3882671","MEAN_MOTION_DOT":"0.00026994","MEAN_MOTION_DDOT":"0.0000000000000","APOAPSIS":"547.888","NORAD_CAT_ID":"48583","EPOCH":"2023-04-07T16:55:32.736864","CLASSIFICATION_TYPE":"U","RA_OF_ASC_NODE":"251.4991","OBJECT_NAME":"STARLINK-2237","MEAN_ELEMENT_THEORY":"SGP4","DECAY_DATE":null,"ECCENTRICITY":"0.00011310","SITE":"AFETR","RCS_SIZE":"LARGE","COUNTRY_CODE":"US","LAUNCH_DATE":"2021-05-15","SEMIMAJOR_AXIS":"6925.239","OBJECT_ID":"2021-041AG","TLE_LINE2":"2 48583  53.0541 251.4991 0001131  50.3010 309.8079 15.06435636104699","ARG_OF_PERICENTER":"50.3010","BSTAR":"0.00182240000000","PERIOD":"95.590","MEAN_MOTION":"15.06435636","REF_FRAME":"TEME","REV_AT_EPOCH":"10469","TLE_LINE1":"1 48583U 21041AG  23097.70524001  .00026994  00000-0  18224-2 0  9995","ELEMENT_SET_NO":"999","EPHEMERIS_TYPE":"0","TIME_SYSTEM":"UTC","OBJECT_TYPE":"PAYLOAD"},{"RA_OF_ASC_NODE":"252.5079","CLASSIFICATION_TYPE":"U","MEAN_ELEMENT_THEORY":"SGP4","OBJECT_NAME":"STARLINK-2238","RCS_SIZE":"LARGE","DECAY_DATE":null,"ECCENTRICITY":"0.00011980","SITE":"AFETR","OBJECT_ID":"2021-041AH","SEMIMAJOR_AXIS":"6925.269","LAUNCH_DATE":"2021-05-15","COUNTRY_CODE":"US","MEAN_ANOMALY":"289.2030","PERIAPSIS":"546.305","INCLINATION":"53.0538","CENTER_NAME":"EARTH","GP_ID":"229683557","APOAPSIS":"547.964","MEAN_MOTION_DDOT":"0.0000000000000","MEAN_MOTION_DOT":"0.00027072","FILE":"3882626","EPOCH":"2023-04-07T11:31:47.061984","NORAD_CAT_ID":"48584","REF_FRAME":"TEME","MEAN_MOTION":"15.06425881","PERIOD":"95.590","TLE_LINE1":"1 48584U 21041AH  23097.48040581  .00027072  00000-0  18281-2 0  9998","ELEMENT_SET_NO":"999","EPHEMERIS_TYPE":"0","REV_AT_EPOCH":"10420","TIME_SYSTEM":"UTC","OBJECT_TYPE":"PAYLOAD","BSTAR":"0.00182810000000","ARG_OF_PERICENTER":"70.9089","TLE_LINE2":"2 48584  53.0538 252.5079 0001198  70.9089 289.2030 15.06425881104208"},{"MEAN_ELEMENT_THEORY":"SGP4","OBJECT_NAME":"STARLINK-2240","RA_OF_ASC_NODE":"251.5608","CLASSIFICATION_TYPE":"U","OBJECT_ID":"2021-041AJ","SEMIMAJOR_AXIS":"6925.289","LAUNCH_DATE":"2021-05-15","COUNTRY_CODE":"US","RCS_SIZE":"LARGE","SITE":"AFETR","DECAY_DATE":null,"ECCENTRICITY":"0.00007100","CENTER_NAME":"EARTH","GP_ID":"229691441","MEAN_ANOMALY":"296.8908","PERIAPSIS":"546.663","INCLINATION":"53.0527","EPOCH":"2023-04-07T16:34:17.135040","NORAD_CAT_ID":"48585","APOAPSIS":"547.646","MEAN_MOTION_DDOT":"0.0000000000000","MEAN_MOTION_DOT":"0.00000229","FILE":"3882788","TLE_LINE1":"1 48585U 21041AJ  23097.69047610  .00000229  00000-0  34248-4 0  9990","EPHEMERIS_TYPE":"0","ELEMENT_SET_NO":"999","REV_AT_EPOCH":"10463","MEAN_MOTION":"15.06419347","REF_FRAME":"TEME","PERIOD":"95.591","OBJECT_TYPE":"PAYLOAD","TIME_SYSTEM":"UTC","BSTAR":"0.00003424800000","ARG_OF_PERICENTER":"63.2153","TLE_LINE2":"2 48585  53.0527 251.5608 0000710  63.2153 296.8908 15.06419347104635"},{"MEAN_ELEMENT_THEORY":"SGP4","OBJECT_NAME":"STARLINK-2241","CLASSIFICATION_TYPE":"U","RA_OF_ASC_NODE":"252.4906","SEMIMAJOR_AXIS":"6925.284","OBJECT_ID":"2021-041AK","COUNTRY_CODE":"US","LAUNCH_DATE":"2021-05-15","RCS_SIZE":"LARGE","DECAY_DATE":null,"ECCENTRICITY":"0.00009780","SITE":"AFETR","GP_ID":"229682059","CENTER_NAME":"EARTH","INCLINATION":"53.0516","PERIAPSIS":"546.471","MEAN_ANOMALY":"273.7226","EPOCH":"2023-04-07T11:37:05.435616","NORAD_CAT_ID":"48586","MEAN_MOTION_DDOT":"0.0000000000000","APOAPSIS":"547.826","FILE":"3882626","MEAN_MOTION_DOT":"0.00027660","REV_AT_EPOCH":"10420","TLE_LINE1":"1 48586U 21041AK  23097.48409069  .00027660  00000-0  18675-2 0  9990","EPHEMERIS_TYPE":"0","ELEMENT_SET_NO":"999","PERIOD":"95.591","MEAN_MOTION":"15.06421165","REF_FRAME":"TEME","OBJECT_TYPE":"PAYLOAD","TIME_SYSTEM":"UTC","BSTAR":"0.00186750000000","TLE_LINE2":"2 48586  53.0516 252.4906 0000978  86.3875 273.7226 15.06421165104209","ARG_OF_PERICENTER":"86.3875"},{"MEAN_ELEMENT_THEORY":"SGP4","OBJECT_NAME":"STARLINK-2242","CLASSIFICATION_TYPE":"U","RA_OF_ASC_NODE":"251.2845","SEMIMAJOR_AXIS":"6925.268","OBJECT_ID":"2021-041AL","COUNTRY_CODE":"US","LAUNCH_DATE":"2021-05-15","RCS_SIZE":"LARGE","DECAY_DATE":null,"ECCENTRICITY":"0.00015790","SITE":"AFETR","GP_ID":"229692009","CENTER_NAME":"EARTH","MEAN_ANOMALY":"329.0683","PERIAPSIS":"546.040","INCLINATION":"53.0549","EPOCH":"2023-04-07T18:04:33.060288","NORAD_CAT_ID":"48587","MEAN_MOTION_DDOT":"0.0000000000000","APOAPSIS":"548.227","FILE":"3882792","MEAN_MOTION_DOT":"0.00010896","REV_AT_EPOCH":"10464","ELEMENT_SET_NO":"999","TLE_LINE1":"1 48587U 21041AL  23097.75316042  .00010896  00000-0  74871-3 0  9993","EPHEMERIS_TYPE":"0","PERIOD":"95.590","REF_FRAME":"TEME","MEAN_MOTION":"15.06426198","OBJECT_TYPE":"PAYLOAD","TIME_SYSTEM":"UTC","BSTAR":"0.00074871000000","TLE_LINE2":"2 48587  53.0549 251.2845 0001579  31.0399 329.0683 15.06426198104642","ARG_OF_PERICENTER":"31.0399"},{"COUNTRY_CODE":"US","LAUNCH_DATE":"2021-05-15","SEMIMAJOR_AXIS":"6925.231","OBJECT_ID":"2021-041AM","DECAY_DATE":null,"ECCENTRICITY":"0.00012110","SITE":"AFETR","RCS_SIZE":"LARGE","OBJECT_NAME":"STARLINK-2244","MEAN_ELEMENT_THEORY":"SGP4","CLASSIFICATION_TYPE":"U","RA_OF_ASC_NODE":"241.6705","NORAD_CAT_ID":"48588","EPOCH":"2023-04-07T15:58:29.320032","FILE":"3882792","MEAN_MOTION_DOT":"0.00031660","MEAN_MOTION_DDOT":"0.0000000000000","APOAPSIS":"547.935","CENTER_NAME":"EARTH","GP_ID":"229692008","PERIAPSIS":"546.258","MEAN_ANOMALY":"299.9508","INCLINATION":"53.0537","OBJECT_TYPE":"PAYLOAD","TIME_SYSTEM":"UTC","REV_AT_EPOCH":"10482","EPHEMERIS_TYPE":"0","TLE_LINE1":"1 48588U 21041AM  23097.66561713  .00031660  00000-0  21326-2 0  9999","ELEMENT_SET_NO":"999","PERIOD":"95.590","MEAN_MOTION":"15.06438236","REF_FRAME":"TEME","TLE_LINE2":"2 48588  53.0537 241.6705 0001211  60.1601 299.9508 15.06438236104827","ARG_OF_PERICENTER":"60.1601","BSTAR":"0.00213260000000"},{"BSTAR":"0.00188770000000","ARG_OF_PERICENTER":"66.1570","TLE_LINE2":"2 48589  53.0543 242.8835 0001310  66.1570 293.9556 15.06442995104333","TIME_SYSTEM":"UTC","OBJECT_TYPE":"PAYLOAD","REF_FRAME":"TEME","MEAN_MOTION":"15.06442995","PERIOD":"95.589","TLE_LINE1":"1 48589U 21041AN  23097.39655672  .00027980  00000-0  18877-2 0  9995","EPHEMERIS_TYPE":"0","ELEMENT_SET_NO":"999","REV_AT_EPOCH":"10433","APOAPSIS":"547.989","MEAN_MOTION_DDOT":"0.0000000000000","MEAN_MOTION_DOT":"0.00027980","FILE":"3882626","EPOCH":"2023-04-07T09:31:02.500608","NORAD_CAT_ID":"48589","MEAN_ANOMALY":"293.9556","PERIAPSIS":"546.175","INCLINATION":"53.0543","GP_ID":"229682310","CENTER_NAME":"EARTH","RCS_SIZE":"LARGE","SITE":"AFETR","DECAY_DATE":null,"ECCENTRICITY":"0.00013100","OBJECT_ID":"2021-041AN","SEMIMAJOR_AXIS":"6925.217","LAUNCH_DATE":"2021-05-15","COUNTRY_CODE":"US","RA_OF_ASC_NODE":"242.8835","CLASSIFICATION_TYPE":"U","MEAN_ELEMENT_THEORY":"SGP4","OBJECT_NAME":"STARLINK-2245"},{"MEAN_MOTION_DDOT":"0.0000000000000","APOAPSIS":"547.880","FILE":"3882626","MEAN_MOTION_DOT":"0.00028817","EPOCH":"2023-04-07T09:08:25.930752","NORAD_CAT_ID":"48591","PERIAPSIS":"546.416","MEAN_ANOMALY":"247.4012","INCLINATION":"53.0537","CENTER_NAME":"EARTH","GP_ID":"229682560","RCS_SIZE":"LARGE","DECAY_DATE":null,"SITE":"AFETR","ECCENTRICITY":"0.00010570","SEMIMAJOR_AXIS":"6925.283","OBJECT_ID":"2021-041AQ","COUNTRY_CODE":"US","LAUNCH_DATE":"2021-05-15","CLASSIFICATION_TYPE":"U","RA_OF_ASC_NODE":"242.9495","MEAN_ELEMENT_THEORY":"SGP4","OBJECT_NAME":"STARLINK-2248","BSTAR":"0.00194450000000","TLE_LINE2":"2 48591  53.0537 242.9495 0001057 112.7089 247.4012 15.06421313105235","ARG_OF_PERICENTER":"112.7089","TIME_SYSTEM":"UTC","OBJECT_TYPE":"PAYLOAD","PERIOD":"95.591","REF_FRAME":"TEME","MEAN_MOTION":"15.06421313","REV_AT_EPOCH":"10523","TLE_LINE1":"1 48591U 21041AQ  23097.38085568  .00028817  00000-0  19445-2 0  9990","ELEMENT_SET_NO":"999","EPHEMERIS_TYPE":"0"},{"OBJECT_NAME":"STARLINK-2249","MEAN_ELEMENT_THEORY":"SGP4","CLASSIFICATION_TYPE":"U","RA_OF_ASC_NODE":"251.4432","COUNTRY_CODE":"US","LAUNCH_DATE":"2021-05-15","SEMIMAJOR_AXIS":"6925.270","OBJECT_ID":"2021-041AR","DECAY_DATE":null,"SITE":"AFETR","ECCENTRICITY":"0.00011480","RCS_SIZE":"LARGE","CENTER_NAME":"EARTH","GP_ID":"229692005","PERIAPSIS":"546.340","MEAN_ANOMALY":"311.9528","INCLINATION":"53.0553","NORAD_CAT_ID":"48592","EPOCH":"2023-04-07T17:20:43.984320","FILE":"3882792","MEAN_MOTION_DOT":"0.00024348","MEAN_MOTION_DDOT":"0.0000000000000","APOAPSIS":"547.930","REV_AT_EPOCH":"10454","ELEMENT_SET_NO":"999","TLE_LINE1":"1 48592U 21041AR  23097.72273130  .00024348  00000-0  16467-2 0  9999","EPHEMERIS_TYPE":"0","PERIOD":"95.591","REF_FRAME":"TEME","MEAN_MOTION":"15.06425591","OBJECT_TYPE":"PAYLOAD","TIME_SYSTEM":"UTC","TLE_LINE2":"2 48592  53.0553 251.4432 0001148  48.1559 311.9528 15.06425591104549","ARG_OF_PERICENTER":"48.1559","BSTAR":"0.00164670000000"}];
